HAWK-2C                 
1 47502U 21006CT  26068.67595434  .00008129  00000+0  25493-3 0  9997
2 47502  97.2417 114.9961 0006943 184.0877 176.0310 15.33286436284247
STARLINK-31024          
1 58786U 24011X   26068.26762167 -.00000139  00000+0  74227-5 0  9991
2 58786  53.1619  13.6627 0001160  88.5246 271.5888 15.30191356120238
